ION SCV-014             
1 62630U 25009X   26068.71776957  .00001812  00000+0  13229-3 0  9995
2 62630  97.4923 144.8636 0006450 112.6479 247.5430 15.04884649 63025
STARLINK-34343          
1 64157U 25112M   26068.72152008  .00002225  00000+0  15851-3 0  9994
2 64157  97.6018 121.5647 0001733  97.9633 262.1791 15.05623506 43315
